start=new Date('2022-10-28T00:00:00.000Z').valueOf();
sats=[{"TLE_LINE1":"1 51748U 22016AL  22300.75618810 -.00000369  00000-0 -51016-5 0  9997","RCS_SIZE":"LARGE","SEMIMAJOR_AXIS":"6917.888","APOAPSIS":"541.178","COUNTRY_CODE":"US","INCLINATION":"53.2178","SITE":"AFETR","OBJECT_TYPE":"PAYLOAD","NORAD_CAT_ID":"51748","RA_OF_ASC_NODE":"66.0254","MEAN_ELEMENT_THEORY":"SGP4","PERIAPSIS":"538.328","OBJECT_NAME":"STARLINK-3501","DECAY_DATE":null,"LAUNCH_DATE":"2022-02-21","TIME_SYSTEM":"UTC","GP_ID":"216337956","CENTER_NAME":"EARTH","MEAN_ANOMALY":"314.1466","EPOCH":"2022-10-27T18:08:54.651840","MEAN_MOTION":"15.08837501","TLE_LINE2":"2 51748  53.2178  66.0254 0002060  45.9696 314.1466 15.08837501 38175","OBJECT_ID":"2022-016AL","MEAN_MOTION_DDOT":"0.0000000000000","MEAN_MOTION_DOT":"-0.00000369","BSTAR":"-0.00000510160000","FILE":"3636022","PERIOD":"95.438","EPHEMERIS_TYPE":"0","ECCENTRICITY":"0.00020600","REF_FRAME":"TEME","CLASSIFICATION_TYPE":"U","ELEMENT_SET_NO":"999","REV_AT_EPOCH":"3817","ARG_OF_PERICENTER":"45.9696"},{"EPHEMERIS_TYPE":"0","PERIOD":"95.437","REF_FRAME":"TEME","ECCENTRICITY":"0.00020270","ARG_OF_PERICENTER":"49.8065","REV_AT_EPOCH":"3797","ELEMENT_SET_NO":"999","CLASSIFICATION_TYPE":"U","MEAN_MOTION_DDOT":"0.0000000000000","OBJECT_ID":"2022-016AM","TLE_LINE2":"2 51749  53.2211  77.7633 0002027  49.8065 310.3105 15.08842887 37978","FILE":"3635758","MEAN_MOTION_DOT":"0.00000999","BSTAR":"0.00008087400000","MEAN_ANOMALY":"310.3105","EPOCH":"2022-10-27T08:52:32.326176","CENTER_NAME":"EARTH","MEAN_MOTION":"15.08842887","GP_ID":"216305464","TIME_SYSTEM":"UTC","DECAY_DATE":null,"LAUNCH_DATE":"2022-02-21","NORAD_CAT_ID":"51749","SITE":"AFETR","OBJECT_TYPE":"PAYLOAD","OBJECT_NAME":"STARLINK-3451","RA_OF_ASC_NODE":"77.7633","PERIAPSIS":"538.334","MEAN_ELEMENT_THEORY":"SGP4","APOAPSIS":"541.139","COUNTRY_CODE":"US","INCLINATION":"53.2211","TLE_LINE1":"1 51749U 22016AM  22300.36981859  .00000999  00000-0  80874-4 0  9991","RCS_SIZE":"LARGE","SEMIMAJOR_AXIS":"6917.872"},{"SEMIMAJOR_AXIS":"6917.873","RCS_SIZE":"LARGE","TLE_LINE1":"1 51750U 22016AN  22300.74882744  .00002283  00000-0  16151-3 0  9992","INCLINATION":"53.2170","COUNTRY_CODE":"US","APOAPSIS":"541.366","MEAN_ELEMENT_THEORY":"SGP4","PERIAPSIS":"538.110","RA_OF_ASC_NODE":"66.0574","OBJECT_NAME":"STARLINK-3505","NORAD_CAT_ID":"51750","SITE":"AFETR","OBJECT_TYPE":"PAYLOAD","LAUNCH_DATE":"2022-02-21","DECAY_DATE":null,"GP_ID":"216336455","TIME_SYSTEM":"UTC","MEAN_MOTION":"15.08842360","CENTER_NAME":"EARTH","EPOCH":"2022-10-27T17:58:18.690816","MEAN_ANOMALY":"323.5302","BSTAR":"0.00016151000000","MEAN_MOTION_DOT":"0.00002283","FILE":"3636022","OBJECT_ID":"2022-016AN","TLE_LINE2":"2 51750  53.2170  66.0574 0002353  36.5850 323.5302 15.08842360 38170","MEAN_MOTION_DDOT":"0.0000000000000","ELEMENT_SET_NO":"999","CLASSIFICATION_TYPE":"U","REV_AT_EPOCH":"3817","ARG_OF_PERICENTER":"36.5850","ECCENTRICITY":"0.00023530","REF_FRAME":"TEME","EPHEMERIS_TYPE":"0","PERIOD":"95.437"},{"TIME_SYSTEM":"UTC","GP_ID":"216337702","LAUNCH_DATE":"2022-02-21","DECAY_DATE":null,"MEAN_ANOMALY":"315.8640","EPOCH":"2022-10-27T18:14:13.290720","CENTER_NAME":"EARTH","MEAN_MOTION":"15.08848583","MEAN_MOTION_DDOT":"0.0000000000000","TLE_LINE2":"2 51751  53.2182  66.0116 0001851  44.2500 315.8640 15.08848583 38178","OBJECT_ID":"2022-016AP","FILE":"3636022","MEAN_MOTION_DOT":"0.00004601","BSTAR":"0.00030691000000","EPHEMERIS_TYPE":"0","PERIOD":"95.437","ECCENTRICITY":"0.00018510","REF_FRAME":"TEME","ARG_OF_PERICENTER":"44.2500","CLASSIFICATION_TYPE":"U","ELEMENT_SET_NO":"999","REV_AT_EPOCH":"3817","RCS_SIZE":"LARGE","TLE_LINE1":"1 51751U 22016AP  22300.75987605  .00004601  00000-0  30691-3 0  9997","SEMIMAJOR_AXIS":"6917.854","APOAPSIS":"541.000","COUNTRY_CODE":"US","INCLINATION":"53.2182","SITE":"AFETR","NORAD_CAT_ID":"51751","OBJECT_TYPE":"PAYLOAD","OBJECT_NAME":"STARLINK-3506","RA_OF_ASC_NODE":"66.0116","PERIAPSIS":"538.439","MEAN_ELEMENT_THEORY":"SGP4"},{"OBJECT_ID":"2022-016AQ","TLE_LINE2":"2 51752  53.2175  66.3728 0002054  44.6767 315.4391 15.08841917 38160","MEAN_MOTION_DDOT":"0.0000000000000","MEAN_MOTION_DOT":"0.00000793","BSTAR":"0.00006790600000","FILE":"3636022","EPHEMERIS_TYPE":"0","PERIOD":"95.437","ECCENTRICITY":"0.00020540","REF_FRAME":"TEME","CLASSIFICATION_TYPE":"U","ELEMENT_SET_NO":"999","REV_AT_EPOCH":"3816","ARG_OF_PERICENTER":"44.6767","LAUNCH_DATE":"2022-02-21","DECAY_DATE":null,"GP_ID":"216337457","TIME_SYSTEM":"UTC","CENTER_NAME":"EARTH","EPOCH":"2022-10-27T16:17:36.866688","MEAN_ANOMALY":"315.4391","MEAN_MOTION":"15.08841917","NORAD_CAT_ID":"51752","SITE":"AFETR","OBJECT_TYPE":"PAYLOAD","RA_OF_ASC_NODE":"66.3728","MEAN_ELEMENT_THEORY":"SGP4","PERIAPSIS":"538.319","OBJECT_NAME":"STARLINK-3511","TLE_LINE1":"1 51752U 22016AQ  22300.67889892  .00000793  00000-0  67906-4 0  9996","RCS_SIZE":"MEDIUM","SEMIMAJOR_AXIS":"6917.875","APOAPSIS":"541.160","COUNTRY_CODE":"US","INCLINATION":"53.2175"},{"ARG_OF_PERICENTER":"45.3170","REV_AT_EPOCH":"3815","CLASSIFICATION_TYPE":"U","ELEMENT_SET_NO":"999","ECCENTRICITY":"0.00021490","REF_FRAME":"TEME","PERIOD":"95.437","EPHEMERIS_TYPE":"0","FILE":"3636022","BSTAR":"0.00012218000000","MEAN_MOTION_DOT":"0.00001657","MEAN_MOTION_DDOT":"0.0000000000000","TLE_LINE2":"2 51753  53.2188  66.6389 0002149  45.3170 314.7997 15.08849231 38152","OBJECT_ID":"2022-016AR","MEAN_MOTION":"15.08849231","MEAN_ANOMALY":"314.7997","EPOCH":"2022-10-27T14:52:50.947104","CENTER_NAME":"EARTH","TIME_SYSTEM":"UTC","GP_ID":"216336205","DECAY_DATE":null,"LAUNCH_DATE":"2022-02-21","OBJECT_NAME":"STARLINK-3507","PERIAPSIS":"538.231","MEAN_ELEMENT_THEORY":"SGP4","RA_OF_ASC_NODE":"66.6389","OBJECT_TYPE":"PAYLOAD","SITE":"AFETR","NORAD_CAT_ID":"51753","INCLINATION":"53.2188","COUNTRY_CODE":"US","APOAPSIS":"541.204","SEMIMAJOR_AXIS":"6917.852","RCS_SIZE":"LARGE","TLE_LINE1":"1 51753U 22016AR  22300.62003411  .00001657  00000-0  12218-3 0  9992"},{"OBJECT_TYPE":"PAYLOAD","SITE":"AFETR","NORAD_CAT_ID":"51754","RA_OF_ASC_NODE":"67.2865","PERIAPSIS":"538.169","MEAN_ELEMENT_THEORY":"SGP4","OBJECT_NAME":"STARLINK-3457","TLE_LINE1":"1 51754U 22016AS  22300.47378084  .00005865  00000-0  38616-3 0  9992","RCS_SIZE":"LARGE","SEMIMAJOR_AXIS":"6917.851","APOAPSIS":"541.262","COUNTRY_CODE":"US","INCLINATION":"53.2173","OBJECT_ID":"2022-016AS","TLE_LINE2":"2 51754  53.2173  67.2865 0002236  35.1957 324.9182 15.08849743 38135","MEAN_MOTION_DDOT":"0.0000000000000","MEAN_MOTION_DOT":"0.00005865","BSTAR":"0.00038616000000","FILE":"3635758","PERIOD":"95.437","EPHEMERIS_TYPE":"0","ECCENTRICITY":"0.00022360","REF_FRAME":"TEME","ELEMENT_SET_NO":"999","CLASSIFICATION_TYPE":"U","REV_AT_EPOCH":"3813","ARG_OF_PERICENTER":"35.1957","LAUNCH_DATE":"2022-02-21","DECAY_DATE":null,"GP_ID":"216305214","TIME_SYSTEM":"UTC","CENTER_NAME":"EARTH","MEAN_ANOMALY":"324.9182","EPOCH":"2022-10-27T11:22:14.664576","MEAN_MOTION":"15.08849743"},{"PERIOD":"95.437","EPHEMERIS_TYPE":"0","ECCENTRICITY":"0.00024280","REF_FRAME":"TEME","ARG_OF_PERICENTER":"40.4635","REV_AT_EPOCH":"3813","ELEMENT_SET_NO":"999","CLASSIFICATION_TYPE":"U","MEAN_MOTION_DDOT":"0.0000000000000","OBJECT_ID":"2022-016AT","TLE_LINE2":"2 51755  53.2173  67.2800 0002428  40.4635 319.6537 15.08854798 38131","FILE":"3635758","MEAN_MOTION_DOT":"0.00002856","BSTAR":"0.00019738000000","MEAN_ANOMALY":"319.6537","EPOCH":"2022-10-27T11:26:09.861792","CENTER_NAME":"EARTH","MEAN_MOTION":"15.08854798","TIME_SYSTEM":"UTC","GP_ID":"216305966","LAUNCH_DATE":"2022-02-21","DECAY_DATE":null,"SITE":"AFETR","NORAD_CAT_ID":"51755","OBJECT_TYPE":"PAYLOAD","OBJECT_NAME":"STARLINK-3460","RA_OF_ASC_NODE":"67.2800","PERIAPSIS":"538.021","MEAN_ELEMENT_THEORY":"SGP4","APOAPSIS":"541.380","COUNTRY_CODE":"US","INCLINATION":"53.2173","TLE_LINE1":"1 51755U 22016AT  22300.47650303  .00002856  00000-0  19738-3 0  9991","RCS_SIZE":"LARGE","SEMIMAJOR_AXIS":"6917.835"},{"TLE_LINE1":"1 51756U 22016AU  22300.64578803  .00005583  00000-0  36848-3 0  9996","RCS_SIZE":"LARGE","SEMIMAJOR_AXIS":"6917.846","APOAPSIS":"541.092","INCLINATION":"53.2186","COUNTRY_CODE":"US","OBJECT_TYPE":"PAYLOAD","SITE":"AFETR","NORAD_CAT_ID":"51756","MEAN_ELEMENT_THEORY":"SGP4","PERIAPSIS":"538.330","RA_OF_ASC_NODE":"66.5254","OBJECT_NAME":"STARLINK-3513","DECAY_DATE":null,"LAUNCH_DATE":"2022-02-21","TIME_SYSTEM":"UTC","GP_ID":"216337957","CENTER_NAME":"EARTH","MEAN_ANOMALY":"317.5129","EPOCH":"2022-10-27T15:29:56.085792","MEAN_MOTION":"15.08851218","OBJECT_ID":"2022-016AU","TLE_LINE2":"2 51756  53.2186  66.5254 0001996  42.6017 317.5129 15.08851218 38169","MEAN_MOTION_DDOT":"0.0000000000000","BSTAR":"0.00036848000000","MEAN_MOTION_DOT":"0.00005583","FILE":"3636022","REF_FRAME":"TEME","ECCENTRICITY":"0.00019960","PERIOD":"95.437","EPHEMERIS_TYPE":"0","ELEMENT_SET_NO":"999","CLASSIFICATION_TYPE":"U","REV_AT_EPOCH":"3816","ARG_OF_PERICENTER":"42.6017"},{"DECAY_DATE":null,"LAUNCH_DATE":"2022-02-21","TIME_SYSTEM":"UTC","GP_ID":"216336705","MEAN_MOTION":"15.08855427","CENTER_NAME":"EARTH","MEAN_ANOMALY":"320.2461","EPOCH":"2022-10-27T15:24:38.584800","MEAN_MOTION_DOT":"0.00005542","BSTAR":"0.00036589000000","FILE":"3636022","TLE_LINE2":"2 51757  53.2199  66.5384 0002396  39.8707 320.2461 15.08855427 38163","OBJECT_ID":"2022-016AV","MEAN_MOTION_DDOT":"0.0000000000000","ELEMENT_SET_NO":"999","CLASSIFICATION_TYPE":"U","REV_AT_EPOCH":"3816","ARG_OF_PERICENTER":"39.8707","PERIOD":"95.437","EPHEMERIS_TYPE":"0","REF_FRAME":"TEME","ECCENTRICITY":"0.00023960","SEMIMAJOR_AXIS":"6917.833","RCS_SIZE":"LARGE","TLE_LINE1":"1 51757U 22016AV  22300.64211325  .00005542  00000-0  36589-3 0  9997","COUNTRY_CODE":"US","INCLINATION":"53.2199","APOAPSIS":"541.356","RA_OF_ASC_NODE":"66.5384","MEAN_ELEMENT_THEORY":"SGP4","PERIAPSIS":"538.041","OBJECT_NAME":"STARLINK-3459","SITE":"AFETR","OBJECT_TYPE":"PAYLOAD","NORAD_CAT_ID":"51757"}];
